[{"OBJECT_NAME":"KINEIS-5E","OBJECT_ID":"2024-219C","EPOCH":"2026-03-03T20:06:41.766624","MEAN_MOTION":14.72319837,"ECCENTRICITY":0.0002701,"INCLINATION":97.9652,"RA_OF_ASC_NODE":224.5847,"ARG_OF_PERICENTER":138.7342,"MEAN_ANOMALY":221.407,"EPHEMERIS_TYPE":0,"CLASSIFICATION_TYPE":"U","NORAD_CAT_ID":62083,"ELEMENT_SET_NO":999,"REV_AT_EPOCH":6826,"BSTAR":7.011e-5,"MEAN_MOTION_DOT":3.94e-6,"MEAN_MOTION_DDOT":0},{"OBJECT_NAME":"KINEIS-5A","OBJECT_ID":"2024-219D","EPOCH":"2026-03-03T20:52:05.244096","MEAN_MOTION":14.72175601,"ECCENTRICITY":0.0001221,"INCLINATION":97.9792,"RA_OF_ASC_NODE":224.7122,"ARG_OF_PERICENTER":235.1802,"MEAN_ANOMALY":124.929,"EPHEMERIS_TYPE":0,"CLASSIFICATION_TYPE":"U","NORAD_CAT_ID":62084,"ELEMENT_SET_NO":999,"REV_AT_EPOCH":6827,"BSTAR":0.00018557,"MEAN_MOTION_DOT":1.12e-5,"MEAN_MOTION_DDOT":0},{"OBJECT_NAME":"KINEIS-5B","OBJECT_ID":"2024-219E","EPOCH":"2026-03-03T20:33:17.182368","MEAN_MOTION":14.78045065,"ECCENTRICITY":0.0001105,"INCLINATION":97.9931,"RA_OF_ASC_NODE":227.3842,"ARG_OF_PERICENTER":215.1625,"MEAN_ANOMALY":144.9513,"EPHEMERIS_TYPE":0,"CLASSIFICATION_TYPE":"U","NORAD_CAT_ID":62085,"ELEMENT_SET_NO":999,"REV_AT_EPOCH":6844,"BSTAR":0.00035312,"MEAN_MOTION_DOT":2.499e-5,"MEAN_MOTION_DDOT":0},{"OBJECT_NAME":"KINEIS-2C","OBJECT_ID":"2025-028B","EPOCH":"2026-03-03T16:17:10.995072","MEAN_MOTION":14.72295598,"ECCENTRICITY":0.0001379,"INCLINATION":98.0287,"RA_OF_ASC_NODE":117.9203,"ARG_OF_PERICENTER":41.3315,"MEAN_ANOMALY":318.7996,"EPHEMERIS_TYPE":0,"CLASSIFICATION_TYPE":"U","NORAD_CAT_ID":62929,"ELEMENT_SET_NO":999,"REV_AT_EPOCH":5708,"BSTAR":0.0002517,"MEAN_MOTION_DOT":1.541e-5,"MEAN_MOTION_DDOT":0},{"OBJECT_NAME":"KINEIS-2D","OBJECT_ID":"2025-028C","EPOCH":"2026-03-03T17:40:50.886048","MEAN_MOTION":14.7531529,"ECCENTRICITY":0.0003695,"INCLINATION":97.9421,"RA_OF_ASC_NODE":117.176,"ARG_OF_PERICENTER":161.5767,"MEAN_ANOMALY":198.5577,"EPHEMERIS_TYPE":0,"CLASSIFICATION_TYPE":"U","NORAD_CAT_ID":62930,"ELEMENT_SET_NO":999,"REV_AT_EPOCH":5716,"BSTAR":0.0003608,"MEAN_MOTION_DOT":2.395e-5,"MEAN_MOTION_DDOT":0},{"OBJECT_NAME":"KINEIS-2E","OBJECT_ID":"2025-028D","EPOCH":"2026-03-03T17:37:45.595200","MEAN_MOTION":14.76692317,"ECCENTRICITY":0.0001833,"INCLINATION":97.9092,"RA_OF_ASC_NODE":116.5712,"ARG_OF_PERICENTER":115.6861,"MEAN_ANOMALY":244.4538,"EPHEMERIS_TYPE":0,"CLASSIFICATION_TYPE":"U","NORAD_CAT_ID":62931,"ELEMENT_SET_NO":999,"REV_AT_EPOCH":5721,"BSTAR":0.00027667,"MEAN_MOTION_DOT":1.886e-5,"MEAN_MOTION_DDOT":0},{"OBJECT_NAME":"KINEIS-2A","OBJECT_ID":"2025-028E","EPOCH":"2026-03-03T16:56:52.601568","MEAN_MOTION":14.72081764,"ECCENTRICITY":0.000333,"INCLINATION":98.0697,"RA_OF_ASC_NODE":118.253,"ARG_OF_PERICENTER":214.2369,"MEAN_ANOMALY":145.8624,"EPHEMERIS_TYPE":0,"CLASSIFICATION_TYPE":"U","NORAD_CAT_ID":62932,"ELEMENT_SET_NO":999,"REV_AT_EPOCH":5708,"BSTAR":0.00025967,"MEAN_MOTION_DOT":1.583e-5,"MEAN_MOTION_DDOT":0},{"OBJECT_NAME":"KINEIS-2B","OBJECT_ID":"2025-028G","EPOCH":"2026-03-03T17:32:28.795776","MEAN_MOTION":14.73094225,"ECCENTRICITY":0.0004809,"INCLINATION":97.9805,"RA_OF_ASC_NODE":117.4633,"ARG_OF_PERICENTER":122.6581,"MEAN_ANOMALY":237.5091,"EPHEMERIS_TYPE":0,"CLASSIFICATION_TYPE":"U","NORAD_CAT_ID":62934,"ELEMENT_SET_NO":999,"REV_AT_EPOCH":5713,"BSTAR":0.00027563,"MEAN_MOTION_DOT":1.725e-5,"MEAN_MOTION_DDOT":0},{"OBJECT_NAME":"KINEIS-4E","OBJECT_ID":"2025-056A","EPOCH":"2026-03-03T20:12:06.274656","MEAN_MOTION":14.72330882,"ECCENTRICITY":5.76e-5,"INCLINATION":97.9933,"RA_OF_ASC_NODE":189.2461,"ARG_OF_PERICENTER":192.2905,"MEAN_ANOMALY":167.8288,"EPHEMERIS_TYPE":0,"CLASSIFICATION_TYPE":"U","NORAD_CAT_ID":63300,"ELEMENT_SET_NO":999,"REV_AT_EPOCH":5162,"BSTAR":0.000537,"MEAN_MOTION_DOT":3.348e-5,"MEAN_MOTION_DDOT":0},{"OBJECT_NAME":"KINEIS-4C","OBJECT_ID":"2025-056B","EPOCH":"2026-03-03T20:30:01.302336","MEAN_MOTION":14.72372364,"ECCENTRICITY":7.36e-5,"INCLINATION":97.9992,"RA_OF_ASC_NODE":189.4215,"ARG_OF_PERICENTER":48.0806,"MEAN_ANOMALY":312.0464,"EPHEMERIS_TYPE":0,"CLASSIFICATION_TYPE":"U","NORAD_CAT_ID":63301,"ELEMENT_SET_NO":999,"REV_AT_EPOCH":5163,"BSTAR":0.0005446,"MEAN_MOTION_DOT":3.399e-5,"MEAN_MOTION_DDOT":0},{"OBJECT_NAME":"KINEIS-4D","OBJECT_ID":"2025-056C","EPOCH":"2026-03-03T20:37:14.990592","MEAN_MOTION":14.72343247,"ECCENTRICITY":5.41e-5,"INCLINATION":97.9974,"RA_OF_ASC_NODE":189.4051,"ARG_OF_PERICENTER":328.2974,"MEAN_ANOMALY":31.8201,"EPHEMERIS_TYPE":0,"CLASSIFICATION_TYPE":"U","NORAD_CAT_ID":63302,"ELEMENT_SET_NO":999,"REV_AT_EPOCH":5163,"BSTAR":0.00056249,"MEAN_MOTION_DOT":3.51e-5,"MEAN_MOTION_DDOT":0},{"OBJECT_NAME":"KINEIS-4A","OBJECT_ID":"2025-056D","EPOCH":"2026-03-03T14:53:29.947200","MEAN_MOTION":14.722789,"ECCENTRICITY":0.000161,"INCLINATION":97.9941,"RA_OF_ASC_NODE":189.0973,"ARG_OF_PERICENTER":271.1978,"MEAN_ANOMALY":88.9045,"EPHEMERIS_TYPE":0,"CLASSIFICATION_TYPE":"U","NORAD_CAT_ID":63303,"ELEMENT_SET_NO":999,"REV_AT_EPOCH":5159,"BSTAR":-0.00014474,"MEAN_MOTION_DOT":-9.63e-6,"MEAN_MOTION_DDOT":0},{"OBJECT_NAME":"KINEIS-4B","OBJECT_ID":"2025-056E","EPOCH":"2026-03-03T19:22:42.351168","MEAN_MOTION":14.72295278,"ECCENTRICITY":0.0002028,"INCLINATION":97.9947,"RA_OF_ASC_NODE":189.3269,"ARG_OF_PERICENTER":211.1314,"MEAN_ANOMALY":148.9773,"EPHEMERIS_TYPE":0,"CLASSIFICATION_TYPE":"U","NORAD_CAT_ID":63304,"ELEMENT_SET_NO":999,"REV_AT_EPOCH":5161,"BSTAR":0.000239,"MEAN_MOTION_DOT":1.461e-5,"MEAN_MOTION_DDOT":0}]
