KINEIS-5E               
1 62083U 24219C   26062.83798341  .00000394  00000+0  70110-4 0  9994
2 62083  97.9652 224.5847 0002701 138.7342 221.4070 14.72319837 68262
KINEIS-5A               
1 62084U 24219D   26062.86950514  .00001120  00000+0  18557-3 0  9994
2 62084  97.9792 224.7122 0001221 235.1802 124.9290 14.72175601 68276
KINEIS-5B               
1 62085U 24219E   26062.85644887  .00002499  00000+0  35312-3 0  9995
2 62085  97.9931 227.3842 0001105 215.1625 144.9513 14.78045065 68447
KINEIS-2C               
1 62929U 25028B   26062.67859948  .00001541  00000+0  25170-3 0  9995
2 62929  98.0287 117.9203 0001379  41.3315 318.7996 14.72295598 57089
KINEIS-2D               
1 62930U 25028C   26062.73670007  .00002395  00000+0  36080-3 0  9991
2 62930  97.9421 117.1760 0003695 161.5767 198.5577 14.75315290 57161
KINEIS-2E               
1 62931U 25028D   26062.73455550  .00001886  00000+0  27667-3 0  9991
2 62931  97.9092 116.5712 0001833 115.6861 244.4538 14.76692317 57216
KINEIS-2A               
1 62932U 25028E   26062.70616437  .00001583  00000+0  25967-3 0  9997
2 62932  98.0697 118.2530 0003330 214.2369 145.8624 14.72081764 57089
KINEIS-2B               
1 62934U 25028G   26062.73088884  .00001725  00000+0  27563-3 0  9993
2 62934  97.9805 117.4633 0004809 122.6581 237.5091 14.73094225 57135
KINEIS-4E               
1 63300U 25056A   26062.84173929  .00003348  00000+0  53700-3 0  9994
2 63300  97.9933 189.2461 0000576 192.2905 167.8288 14.72330882 51623
KINEIS-4C               
1 63301U 25056B   26062.85418174  .00003399  00000+0  54460-3 0  9990
2 63301  97.9992 189.4215 0000736  48.0806 312.0464 14.72372364 51636
KINEIS-4D               
1 63302U 25056C   26062.85920128  .00003510  00000+0  56249-3 0  9990
2 63302  97.9974 189.4051 0000541 328.2974  31.8201 14.72343247 51631
KINEIS-4A               
1 63303U 25056D   26062.62048550 -.00000963  00000+0 -14474-3 0  9991
2 63303  97.9941 189.0973 0001610 271.1978  88.9045 14.72278900 51590
KINEIS-4B               
1 63304U 25056E   26062.80743462  .00001461  00000+0  23900-3 0  9992
2 63304  97.9947 189.3269 0002028 211.1314 148.9773 14.72295278 51615
